{
  "type": "FeatureCollection",
  "features": [
    {
      "type": "Feature",
      "properties": {
        "norad_id": 31816,
        "name": "FENGYUN 1C DEB",
        "group": "fengyun-1c-debris",
        "lat": 76.82627293651274,
        "lon": -43.20450164462208,
        "alt_km": 880.3143177735838,
        "timestamp": "2025-12-05T19:30:25.849777+00:00",
        "meta_object_name": "FENGYUN 1C DEB",
        "meta_object_id": "1999-025CHE",
        "meta_epoch": "2025-11-23T07:26:54.652128",
        "meta_mean_motion": 13.94096492,
        "meta_eccentricity": 0.01210461,
        "meta_inclination": 98.9829,
        "meta_ra_of_asc_node": 82.1237,
        "meta_arg_of_pericenter": 207.0018,
        "meta_mean_anomaly": 180.5984,
        "meta_ephemeris_type": 0,
        "meta_classification_type": "U",
        "meta_norad_cat_id": 31816,
        "meta_element_set_no": 999,
        "meta_rev_at_epoch": 93423,
        "meta_bstar": 0.0012545957,
        "meta_mean_motion_dot": 1.723e-05,
        "meta_mean_motion_ddot": 0,
        "tle_line1": "1 31816U 99025CHE 25327.31035477  .00001723  00000+0  12546-2 0  9995",
        "tle_line2": "2 31816  98.9829  82.1237 0121046 207.0018 180.5984 13.94096492934234"
      },
      "geometry": {
        "type": "Point",
        "coordinates": [
          -43.20450164462208,
          76.82627293651274
        ]
      }
    },
    {
      "type": "Feature",
      "properties": {
        "norad_id": 31817,
        "name": "FENGYUN 1C DEB",
        "group": "fengyun-1c-debris",
        "lat": -10.256553733922585,
        "lon": -22.785582859408017,
        "alt_km": 692.1207103171637,
        "timestamp": "2025-12-05T19:30:25.849788+00:00",
        "meta_object_name": "FENGYUN 1C DEB",
        "meta_object_id": "1999-025CHF",
        "meta_epoch": "2025-12-04T05:51:59.274720",
        "meta_mean_motion": 14.65485668,
        "meta_eccentricity": 0.0062928,
        "meta_inclination": 98.9183,
        "meta_ra_of_asc_node": 333.8855,
        "meta_arg_of_pericenter": 101.357,
        "meta_mean_anomaly": 259.4709,
        "meta_ephemeris_type": 0,
        "meta_classification_type": "U",
        "meta_norad_cat_id": 31817,
        "meta_element_set_no": 999,
        "meta_rev_at_epoch": 71281,
        "meta_bstar": 0.0028956,
        "meta_mean_motion_dot": 0.00016126,
        "meta_mean_motion_ddot": 0,
        "tle_line1": "1 31817U 99025CHF 25338.24443605  .00016126  00000+0  28956-2 0  9991",
        "tle_line2": "2 31817  98.9183 333.8855 0062928 101.3570 259.4709 14.65485668712817"
      },
      "geometry": {
        "type": "Point",
        "coordinates": [
          -22.785582859408017,
          -10.256553733922585
        ]
      }
    },
    {
      "type": "Feature",
      "properties": {
        "norad_id": 31819,
        "name": "FENGYUN 1C DEB",
        "group": "fengyun-1c-debris",
        "lat": 75.60158374375413,
        "lon": -64.19626124606303,
        "alt_km": 791.5021945970329,
        "timestamp": "2025-12-05T19:30:25.849798+00:00",
        "meta_object_name": "FENGYUN 1C DEB",
        "meta_object_id": "1999-025CHH",
        "meta_epoch": "2025-12-01T19:26:11.468544",
        "meta_mean_motion": 14.30134028,
        "meta_eccentricity": 0.00875682,
        "meta_inclination": 98.4736,
        "meta_ra_of_asc_node": 327.4043,
        "meta_arg_of_pericenter": 352.8381,
        "meta_mean_anomaly": 7.1544,
        "meta_ephemeris_type": 0,
        "meta_classification_type": "U",
        "meta_norad_cat_id": 31819,
        "meta_element_set_no": 999,
        "meta_rev_at_epoch": 96537,
        "meta_bstar": 0.00045097789,
        "meta_mean_motion_dot": 1.173e-05,
        "meta_mean_motion_ddot": 0,
        "tle_line1": "1 31819U 99025CHH 25335.80985496  .00001173  00000+0  45098-3 0  9994",
        "tle_line2": "2 31819  98.4736 327.4043 0087568 352.8381   7.1544 14.30134028965375"
      },
      "geometry": {
        "type": "Point",
        "coordinates": [
          -64.19626124606303,
          75.60158374375413
        ]
      }
    },
    {
      "type": "Feature",
      "properties": {
        "norad_id": 31820,
        "name": "FENGYUN 1C DEB",
        "group": "fengyun-1c-debris",
        "lat": -64.66274397218913,
        "lon": -49.66094988323536,
        "alt_km": 687.9414217852554,
        "timestamp": "2025-12-05T19:30:25.849808+00:00",
        "meta_object_name": "FENGYUN 1C DEB",
        "meta_object_id": "1999-025CHJ",
        "meta_epoch": "2025-12-05T05:31:51.203136",
        "meta_mean_motion": 14.91947844,
        "meta_eccentricity": 0.01510454,
        "meta_inclination": 98.9594,
        "meta_ra_of_asc_node": 149.1402,
        "meta_arg_of_pericenter": 36.1593,
        "meta_mean_anomaly": 324.9721,
        "meta_ephemeris_type": 0,
        "meta_classification_type": "U",
        "meta_norad_cat_id": 31820,
        "meta_element_set_no": 999,
        "meta_rev_at_epoch": 98144,
        "meta_bstar": 0.0016610568,
        "meta_mean_motion_dot": 0.00020946,
        "meta_mean_motion_ddot": 0,
        "tle_line1": "1 31820U 99025CHJ 25339.23045374  .00020946  00000+0  16611-2 0  9996",
        "tle_line2": "2 31820  98.9594 149.1402 0151045  36.1593 324.9721 14.91947844981449"
      },
      "geometry": {
        "type": "Point",
        "coordinates": [
          -49.66094988323536,
          -64.66274397218913
        ]
      }
    },
    {
      "type": "Feature",
      "properties": {
        "norad_id": 31821,
        "name": "FENGYUN 1C DEB",
        "group": "fengyun-1c-debris",
        "lat": 69.89744875956013,
        "lon": -157.99846360892982,
        "alt_km": 618.0501652989033,
        "timestamp": "2025-12-05T19:30:25.849819+00:00",
        "meta_object_name": "FENGYUN 1C DEB",
        "meta_object_id": "1999-025CHK",
        "meta_epoch": "2025-12-03T22:12:36.893664",
        "meta_mean_motion": 14.41372879,
        "meta_eccentricity": 0.0221705,
        "meta_inclination": 98.156,
        "meta_ra_of_asc_node": 223.2667,
        "meta_arg_of_pericenter": 41.081,
        "meta_mean_anomaly": 320.6839,
        "meta_ephemeris_type": 0,
        "meta_classification_type": "U",
        "meta_norad_cat_id": 31821,
        "meta_element_set_no": 999,
        "meta_rev_at_epoch": 93534,
        "meta_bstar": 0.011009,
        "meta_mean_motion_dot": 0.00048066,
        "meta_mean_motion_ddot": 0,
        "tle_line1": "1 31821U 99025CHK 25337.92542701  .00048066  00000+0  11009-1 0  9995",
        "tle_line2": "2 31821  98.1560 223.2667 0221705  41.0810 320.6839 14.41372879935346"
      },
      "geometry": {
        "type": "Point",
        "coordinates": [
          -157.99846360892982,
          69.89744875956013
        ]
      }
    },
    {
      "type": "Feature",
      "properties": {
        "norad_id": 31823,
        "name": "FENGYUN 1C DEB",
        "group": "fengyun-1c-debris",
        "lat": 1.549004272323109,
        "lon": 64.68654003157214,
        "alt_km": 691.7638110421121,
        "timestamp": "2025-12-05T19:30:25.849829+00:00",
        "meta_object_name": "FENGYUN 1C DEB",
        "meta_object_id": "1999-025CHM",
        "meta_epoch": "2025-12-02T11:12:25.018272",
        "meta_mean_motion": 14.6544758,
        "meta_eccentricity": 0.0037092,
        "meta_inclination": 99.5128,
        "meta_ra_of_asc_node": 61.0788,
        "meta_arg_of_pericenter": 250.3625,
        "meta_mean_anomaly": 109.3568,
        "meta_ephemeris_type": 0,
        "meta_classification_type": "U",
        "meta_norad_cat_id": 31823,
        "meta_element_set_no": 999,
        "meta_rev_at_epoch": 96567,
        "meta_bstar": 0.0016235378,
        "meta_mean_motion_dot": 8.822e-05,
        "meta_mean_motion_ddot": 0,
        "tle_line1": "1 31823U 99025CHM 25336.46695623  .00008822  00000+0  16235-2 0  9990",
        "tle_line2": "2 31823  99.5128  61.0788 0037092 250.3625 109.3568 14.65447580965676"
      },
      "geometry": {
        "type": "Point",
        "coordinates": [
          64.68654003157214,
          1.549004272323109
        ]
      }
    },
    {
      "type": "Feature",
      "properties": {
        "norad_id": 31825,
        "name": "FENGYUN 1C DEB",
        "group": "fengyun-1c-debris",
        "lat": 81.40132673415384,
        "lon": -112.02211725006347,
        "alt_km": 814.1983966479684,
        "timestamp": "2025-12-05T19:30:25.849840+00:00",
        "meta_object_name": "FENGYUN 1C DEB",
        "meta_object_id": "1999-025CHP",
        "meta_epoch": "2025-12-04T19:26:41.262720",
        "meta_mean_motion": 14.21602569,
        "meta_eccentricity": 0.01661392,
        "meta_inclination": 98.5899,
        "meta_ra_of_asc_node": 338.6183,
        "meta_arg_of_pericenter": 1.3581,
        "meta_mean_anomaly": 358.8016,
        "meta_ephemeris_type": 0,
        "meta_classification_type": "U",
        "meta_norad_cat_id": 31825,
        "meta_element_set_no": 999,
        "meta_rev_at_epoch": 95509,
        "meta_bstar": 0.0014524042,
        "meta_mean_motion_dot": 3.621e-05,
        "meta_mean_motion_ddot": 0,
        "tle_line1": "1 31825U 99025CHP 25338.81019980  .00003621  00000+0  14524-2 0  9990",
        "tle_line2": "2 31825  98.5899 338.6183 0166139   1.3581 358.8016 14.21602569955090"
      },
      "geometry": {
        "type": "Point",
        "coordinates": [
          -112.02211725006347,
          81.40132673415384
        ]
      }
    }
  ]
}